[{"OBJECT_NAME":"STARLINK-3786","OBJECT_ID":"2022-041C","EPOCH":"2026-03-09T09:13:32.680128","MEAN_MOTION":15.08842095,"ECCENTRICITY":0.00013249,"INCLINATION":53.2165,"RA_OF_ASC_NODE":110.4925,"ARG_OF_PERICENTER":96.0614,"MEAN_ANOMALY":264.0529,"EPHEMERIS_TYPE":0,"CLASSIFICATION_TYPE":"U","NORAD_CAT_ID":52263,"ELEMENT_SET_NO":999,"REV_AT_EPOCH":21431,"BSTAR":1.358664e-5,"MEAN_MOTION_DOT":-7.2e-7,"MEAN_MOTION_DDOT":0},{"OBJECT_NAME":"ARIANE 44L DEB","OBJECT_ID":"1991-003K","EPOCH":"2026-03-09T14:58:18.060096","MEAN_MOTION":3.61361666,"ECCENTRICITY":0.61750664,"INCLINATION":7.9097,"RA_OF_ASC_NODE":250.4295,"ARG_OF_PERICENTER":25.9807,"MEAN_ANOMALY":355.0462,"EPHEMERIS_TYPE":0,"CLASSIFICATION_TYPE":"U","NORAD_CAT_ID":24751,"ELEMENT_SET_NO":999,"REV_AT_EPOCH":35132,"BSTAR":0.0016610147,"MEAN_MOTION_DOT":5.97e-6,"MEAN_MOTION_DDOT":0}]
